[{"OBJECT_NAME":"STARLINK-4156","OBJECT_ID":"2022-076BE","EPOCH":"2026-03-09T08:11:56.505408","MEAN_MOTION":15.08845886,"ECCENTRICITY":0.00011392,"INCLINATION":53.2176,"RA_OF_ASC_NODE":75.6803,"ARG_OF_PERICENTER":78.8709,"MEAN_ANOMALY":281.2411,"EPHEMERIS_TYPE":0,"CLASSIFICATION_TYPE":"U","NORAD_CAT_ID":53038,"ELEMENT_SET_NO":999,"REV_AT_EPOCH":20307,"BSTAR":3.8519258e-5,"MEAN_MOTION_DOT":3.25e-6,"MEAN_MOTION_DDOT":0},{"OBJECT_NAME":"JILIN-1 KUANFU 02A","OBJECT_ID":"2023-127A","EPOCH":"2026-03-09T22:42:00.221760","MEAN_MOTION":15.09948681,"ECCENTRICITY":0.0009702,"INCLINATION":97.5529,"RA_OF_ASC_NODE":164.1218,"ARG_OF_PERICENTER":318.2814,"MEAN_ANOMALY":41.7675,"EPHEMERIS_TYPE":0,"CLASSIFICATION_TYPE":"U","NORAD_CAT_ID":57696,"ELEMENT_SET_NO":999,"REV_AT_EPOCH":14065,"BSTAR":0.00045097028,"MEAN_MOTION_DOT":7.263e-5,"MEAN_MOTION_DDOT":0}]
